TEVEL2-4                
1 63213U 25052D   26068.69417973  .00020990  00000+0  70363-3 0  9998
2 63213  97.4009 325.1237 0004733  95.3468 264.8313 15.30925813 54879
STARLINK-35526          
1 65931U 25225X   26068.52506443  .00018308  00000+0  62906-3 0  9996
2 65931  53.1599 166.3893 0001117  82.3211 277.7917 15.30182480 24380
