[{"OBJECT_NAME":"TEVEL2-4","OBJECT_ID":"2025-052D","EPOCH":"2026-03-09T16:39:37.129536","MEAN_MOTION":15.30925813,"ECCENTRICITY":0.0004733,"INCLINATION":97.4009,"RA_OF_ASC_NODE":325.1237,"ARG_OF_PERICENTER":95.3468,"MEAN_ANOMALY":264.8313,"EPHEMERIS_TYPE":0,"CLASSIFICATION_TYPE":"U","NORAD_CAT_ID":63213,"ELEMENT_SET_NO":999,"REV_AT_EPOCH":5487,"BSTAR":0.00070362503,"MEAN_MOTION_DOT":0.0002099,"MEAN_MOTION_DDOT":0},{"OBJECT_NAME":"STARLINK-35526","OBJECT_ID":"2025-225X","EPOCH":"2026-03-09T12:36:05.566752","MEAN_MOTION":15.3018248,"ECCENTRICITY":0.00011178,"INCLINATION":53.1599,"RA_OF_ASC_NODE":166.3893,"ARG_OF_PERICENTER":82.3211,"MEAN_ANOMALY":277.7917,"EPHEMERIS_TYPE":0,"CLASSIFICATION_TYPE":"U","NORAD_CAT_ID":65931,"ELEMENT_SET_NO":999,"REV_AT_EPOCH":2438,"BSTAR":0.00062906036,"MEAN_MOTION_DOT":0.00018308,"MEAN_MOTION_DDOT":0}]
